#aV2009  4 30  0  0   .00000000      96 DD+AD WGS84 FIT  NGA
## 1529 345600.00000000   900.00000000 54951  .0000000000000
+   31     2  3  4  5  6  7  8  9 10 11 12 13 14 15 16 17 18
+         19 20 21 22 23 24 25 26 27 28 29 30 31 32  0  0  0
+          0  0  0  0  0  0  0  0  0  0  0  0  0  0  0  0  0
+          0  0  0  0  0  0  0  0  0  0  0  0  0  0  0  0  0
+          0  0  0  0  0  0  0  0  0  0  0  0  0  0  0  0  0
++         0  0  0  0  0  0  0  0  0  0  0  0  0  0  0  0  0
++         0  0  0  0  0  0  0  0  0  0  0  0  0  0  0  0  0
++         0  0  0  0  0  0  0  0  0  0  0  0  0  0  0  0  0
++         0  0  0  0  0  0  0  0  0  0  0  0  0  0  0  0  0
++         0  0  0  0  0  0  0  0  0  0  0  0  0  0  0  0  0
%c cc cc ccc ccc cccc cccc cccc cccc ccccc ccccc ccccc ccccc
%c cc cc ccc ccc cccc cccc cccc cccc ccccc ccccc ccccc ccccc
%f  0.0000000  0.000000000  0.00000000000  0.000000000000000
%f  0.0000000  0.000000000  0.00000000000  0.000000000000000
%i    0    0    0    0      0      0      0      0         0
%i    0    0    0    0      0      0      0      0         0
/*      NGA, ST. LOUIS,MO.                                  
/*   EPHEMERIS COMPUTED FROM  3 DAYS OF DATA                
/* CCCCCCCCCCCCCCCCCCCCCCCCCCCCCCCCCCCCCCCCCCCCCCCCCCCCCCCCC
/* CCCCCCCCCCCCCCCCCCCCCCCCCCCCCCCCCCCCCCCCCCCCCCCCCCCCCCCCC
*  2009  4 30 12 15   .00000000                                                 
P  2  15308.101208 -13148.311277  16955.886006    153.700396                    
V  2  22036.370292   1215.105131 -19248.175532       .002840                    
P  3  -9013.424630  24771.724670   -794.203714    386.583782                    
V  3  -4175.297949   -912.209907  31171.410465       .052396                    
P  4  24926.569259  -6191.473996   7344.937223    -72.136527                    
V  4   9526.528363   2644.960897 -29204.865425      -.151795                    
P  5 -14291.998361 -22272.268867  -3243.442637    -55.517979                    
V  5   4771.088721   1045.896874 -30983.239928      -.171597                    
P  6 -13719.972353  22402.869907   3912.870755    103.062823                    
V  6  -1274.325247  -5859.616054  30644.187171       .162469                    
P  7  22494.863845   7463.997409  12084.842580     19.610347                    
V  7 -15230.548570   2693.628810  26528.346189      -.005976                    
P  8  26828.792861    115.103328   -682.685032   -200.829514                    
V  8    757.529065   1527.202874  32007.797574      -.016792                    
P  9  -6699.086398 -14397.508771 -21958.853234     53.407746                    
V  9  26190.401025  -2272.588030  -6605.532663       .020117                    
P 10   2913.075215 -19316.156010  17673.430790    -15.272691                    
V 10  13382.495125  18686.056338  18380.833570      -.006206                    
P 11   9636.380598  14514.194726 -20304.317571      -.821076                    
V 11 -24597.567353   7194.902286  -6239.466062      -.015318                    
P 12 -11730.182230 -23605.028943  -3687.732694   -287.541155                    
V 12   4645.076899   2704.843364 -31346.447330       .050289                    
P 13  11567.624109   8674.782589  22151.387169    295.882176                    
V 13 -14698.741527  24238.762619  -1801.651669       .009857                    
P 14 -18168.391008   9551.150890 -16672.971642   -117.960691                    
V 14   9474.808927 -19219.077767 -21292.739276       .058517                    
P 15   5388.757526 -24403.467749  -8879.320254   -286.770133                    
V 15   7595.244888  -8850.178568  28917.498980      -.040401                    
P 16  -6754.061949  15808.672791  20241.045425     55.108173                    
V 16 -14127.602930 -21390.001291  12262.289666      -.032442                    
P 17  18244.008508  -7711.790277 -17535.913927     56.647219                    
V 17  -9215.268347  20581.030818 -18752.972910       .018362                    
P 18 -18978.896267 -12782.395974 -13571.945423    -61.052563                    
V 18  -6790.829692 -16310.015095  24090.719470       .033467                    
P 19  -5170.790367  23314.140912 -11290.893945     26.989094                    
V 19  -9988.439688  10898.712899  27165.722012      -.010368                    
P 20  13412.447337  22870.776188  -2049.741531     83.925290                    
V 20  -4144.777033   -189.921499 -31170.638967      -.010368                    
P 21 -24835.409539  -5903.083016   8668.554777     16.520207                    
V 21  10466.628692  -2991.065245  28159.105029      -.020212                    
P 22 -17530.005004  -1443.427836 -19766.429171    200.668720                    
V 22 -11685.042578 -22691.828597  11857.773762      -.007708                    
P 23   4195.648006  18671.115339  18244.566178    389.754258                    
V 23 -12366.396945  19866.885350 -17710.255447       .002264                    
P 24 -13656.391508 -13344.030199  18487.327681    185.223903                    
V 24  23345.839429  -1471.445043  16556.349359       .029253                    
P 25  16761.267048  10283.575682  18106.103862    387.477567                    
V 25 -21955.521987   4425.085001  18354.050807       .203757                    
P 26    437.603100 -21244.930870 -16147.870028     59.078862                    
V 26  11296.927080 -16126.697797  22791.449430       .015692                    
P 27   5602.428418 -14704.703888 -20756.064814     45.140851                    
V 27  27780.889939  -1975.865923   8583.357205       .031787                    
P 28  17835.525486   4664.014348 -18806.653418    -24.397189                    
V 28  11450.686471  21887.732033  15618.683314      -.002710                    
P 29 -11430.439729 -10590.840767  21620.346656     15.201712                    
V 29  13590.042163 -23561.453546  -4340.008832       .041001                    
P 30 -17997.525562 -18542.862224   5962.698094    142.895376                    
V 30  -2115.919015  -8302.067616 -30268.661919       .027219                    
P 31 -23561.815575   7729.415389   9918.638885    -59.078060                    
V 31 -12303.583235  -1520.164069 -28507.501325      -.010167                    
P 32   5999.157255  24429.350238  -8505.725736    267.878009                    
V 32  -7305.551127  -8917.467589 -29151.211163      -.050533                    
EOF
